{
  "norad_id": 68349,
  "name": "STARLINK-37183",
  "history": [
    {
      "epoch": "2026-03-31T16:00:01.999584Z",
      "apogee_km": 318.6072189667211,
      "perigee_km": 317.567964910053,
      "latitude_deg": -28.932015607741263,
      "longitude_deg": 159.14832416573662,
      "height_km": 327.0103467466332,
      "semi_major_axis_km": 6696.224591938387,
      "eccentricity": 7.76e-05,
      "inclination_deg": 53.1593,
      "raan_deg": 252.5151,
      "arg_perigee_deg": 74.3099,
      "mean_anomaly_deg": 248.7937,
      "mean_motion_rev_day": 15.84374138
    }
  ]
}