{"fetched_at":"2026-04-01T16:59:04Z","count":11445,"tles":[{"name":"STARLINK-37183","line1":"1 68349U 26059AE  26090.66668981 -.01963803  00000+0 -96985-2 0  9999","line2":"2 68349  53.1593 252.5151 0000776  74.3099 248.7937 15.84374138  2579","category":"Starlink"}]}